NORAD_CAT_ID,OBJECT_NAME,OBJECT_TYPE,EPOCH,MEAN_MOTION,ECCENTRICITY,INCLINATION,RA_OF_ASC_NODE,ARG_OF_PERICENTER,MEAN_ANOMALY,BSTAR,MEAN_MOTION_DOT,MEAN_MOTION_DDOT,TLE_LINE0,TLE_LINE1,TLE_LINE2,SEMIMAJOR_AXIS,PERIOD,APOGEE,PERIGEE,DECAYED
53404.0,STARLINK-4509,PAYLOAD,2024-07-02 20:58:26,15.0884422,0.0001062,53.2166,354.0717,95.2415,264.8698,0.00052738,8.116e-05,0.0,0 STARLINK-4509,1 53404U 22097S   24184.87391375  .00008116  00000-0  52738-3 0  9992,2 53404  53.2166 354.0717 0001062  95.2415 264.8698 15.08844220105343,6917.867,95.437,540.467,538.998,0.0
53404.0,STARLINK-4509,PAYLOAD,2024-07-03 20:49:13,15.08842823,0.0001105,53.2155,349.6101,89.7603,270.3516,0.00028823,4.303e-05,0.0,0 STARLINK-4509,1 53404U 22097S   24185.86751621  .00004303  00000-0  28823-3 0  9998,2 53404  53.2155 349.6101 0001105  89.7603 270.3516 15.08842823105497,6917.872,95.437,540.501,538.972,0.0
53404.0,STARLINK-4509,PAYLOAD,2024-07-04 14:18:28,15.08841055,0.0001189,53.2175,346.3379,90.6269,269.4859,0.00016797,2.386e-05,0.0,0 STARLINK-4509,1 53404U 22097S   24186.59615742  .00002386  00000-0  16797-3 0  9998,2 53404  53.2175 346.3379 0001189  90.6269 269.4859 15.08841055106093,6917.877,95.437,540.565,538.92,0.0
53404.0,STARLINK-4509,PAYLOAD,2024-07-04 17:29:14,15.08840523,0.0001073,53.2164,345.743,94.2314,265.8801,0.00016281,2.304e-05,0.0,0 STARLINK-4509,1 53404U 22097S   24186.72863731  .00002304  00000-0  16281-3 0  9994,2 53404  53.2164 345.7430 0001073  94.2314 265.8801 15.08840523105629,6917.879,95.438,540.486,539.002,0.0
53404.0,STARLINK-4509,PAYLOAD,2024-07-05 14:09:15,15.0883935,0.0001059,53.2171,341.8769,88.7651,271.3462,0.00010233,1.341e-05,0.0,0 STARLINK-4509,1 53404U 22097S   24187.58975860  .00001341  00000-0  10233-3 0  9997,2 53404  53.2171 341.8769 0001059  88.7651 271.3462 15.08839350106245,6917.882,95.438,540.48,539.015,0.0
53404.0,STARLINK-4509,PAYLOAD,2024-07-05 17:20:01,15.08840783,0.000107,53.2177,341.2881,94.8849,265.2266,5.4666e-05,5.82e-06,0.0,0 STARLINK-4509,1 53404U 22097S   24187.72223816  .00000582  00000-0  54666-4 0  9995,2 53404  53.2177 341.2881 0001070  94.8849 265.2266 15.08840783106268,6917.878,95.438,540.483,539.003,0.0
53404.0,STARLINK-4509,PAYLOAD,2024-07-06 02:52:19,15.0885132,0.0001072,53.2181,339.5034,94.4327,265.6788,0.00019669,2.845e-05,0.0,0 STARLINK-4509,1 53404U 22097S   24188.11967184  .00002845  00000-0  19669-3 0  9999,2 53404  53.2181 339.5034 0001072  94.4327 265.6788 15.08851320105836,6917.846,95.437,540.452,538.969,0.0
53404.0,STARLINK-4509,PAYLOAD,2024-07-06 10:49:16,15.08827269,0.000108,53.218,338.0162,90.0049,270.1067,-9.5609e-05,-1.808e-05,0.0,0 STARLINK-4509,1 53404U 22097S   24188.45088464 -.00001808  00000-0 -95609-4 0  9990,2 53404  53.2180 338.0162 0001080  90.0049 270.1067 15.08827269105884,6917.919,95.438,540.531,539.037,0.0
53404.0,STARLINK-4509,PAYLOAD,2024-07-06 14:00:02,15.08829362,0.000115,53.2178,337.4219,95.9278,264.1845,-7.3333e-05,-1.454e-05,0.0,0 STARLINK-4509,1 53404U 22097S   24188.58336392 -.00001454  00000-0 -73333-4 0  9997,2 53404  53.2178 337.4219 0001150  95.9278 264.1845 15.08829362106393,6917.913,95.438,540.573,538.982,0.0
53404.0,STARLINK-4509,PAYLOAD,2024-07-06 17:10:48,15.08831729,0.0001157,53.218,336.8275,96.895,263.2174,-3.9343e-05,-9.14e-06,0.0,0 STARLINK-4509,1 53404U 22097S   24188.71584309 -.00000914  00000-0 -39343-4 0  9998,2 53404  53.2180 336.8275 0001157  96.8950 263.2174 15.08831729106413,6917.906,95.438,540.571,538.97,0.0
53404.0,STARLINK-4509,PAYLOAD,2024-07-07 02:43:07,15.08840974,0.0001185,53.2183,335.0429,92.6293,267.4835,9.5081e-05,1.226e-05,0.0,0 STARLINK-4509,1 53404U 22097S   24189.11327953  .00001226  00000-0  95081-4 0  9999,2 53404  53.2183 335.0429 0001185  92.6293 267.4835 15.08840974105986,6917.877,95.437,540.562,538.923,0.0
53404.0,STARLINK-4509,PAYLOAD,2024-07-07 13:50:49,15.08833974,0.0001249,53.2191,332.9616,90.3568,269.7567,1.477e-05,-5.3e-07,0.0,0 STARLINK-4509,1 53404U 22097S   24189.57696511 -.00000053  00000-0  14770-4 0  9992,2 53404  53.2191 332.9616 0001249  90.3568 269.7567 15.08833974106542,6917.899,95.438,540.628,538.9,0.0
53404.0,STARLINK-4509,PAYLOAD,2024-07-07 18:36:59,15.08829126,0.0001164,53.2188,332.0688,83.5408,276.5717,-5.969e-05,-1.237e-05,0.0,0 STARLINK-4509,1 53404U 22097S   24189.77568860 -.00001237  00000-0 -59690-4 0  9995,2 53404  53.2188 332.0688 0001164  83.5408 276.5717 15.08829126106087,6917.914,95.438,540.584,538.973,0.0
53404.0,STARLINK-4509,PAYLOAD,2024-07-08 13:41:37,15.08838225,0.0001033,53.2182,328.5008,86.971,273.14,0.00020618,2.995e-05,0.0,0 STARLINK-4509,1 53404U 22097S   24190.57056714  .00002995  00000-0  20618-3 0  9992,2 53404  53.2182 328.5008 0001033  86.9710 273.1400 15.08838225106201,6917.886,95.438,540.465,539.036,0.0
53404.0,STARLINK-4509,PAYLOAD,2024-07-08 18:27:45,15.08849652,0.0001102,53.219,327.6075,75.8234,284.288,0.00030582,4.584e-05,0.0,0 STARLINK-4509,1 53404U 22097S   24190.76928186  .00004584  00000-0  30582-3 0  9991,2 53404  53.2190 327.6075 0001102  75.8234 284.2880 15.08849652106233,6917.851,95.437,540.478,538.954,0.0
53404.0,STARLINK-4509,PAYLOAD,2024-07-09 13:32:23,15.08838589,0.0001136,53.2167,324.0402,81.6971,278.415,0.00013414,1.848e-05,0.0,0 STARLINK-4509,1 53404U 22097S   24191.56416626  .00001848  00000-0  13414-3 0  9996,2 53404  53.2167 324.0402 0001136  81.6971 278.4150 15.08838589106357,6917.885,95.438,540.536,538.964,0.0
53404.0,STARLINK-4509,PAYLOAD,2024-07-09 15:07:47,15.08840121,9.31e-05,53.2171,323.7417,83.8314,276.2784,0.00015312,2.15e-05,0.0,0 STARLINK-4509,1 53404U 22097S   24191.63040562  .00002150  00000-0  15312-3 0  9992,2 53404  53.2171 323.7417 0000931  83.8314 276.2784 15.08840121106850,6917.88,95.438,540.389,539.101,0.0
53404.0,STARLINK-4509,PAYLOAD,2024-07-10 02:15:28,15.08855249,0.0001099,53.2173,321.6601,82.3091,277.8025,0.000346,5.225e-05,0.0,0 STARLINK-4509,1 53404U 22097S   24192.09407804  .00005225  00000-0  34600-3 0  9996,2 53404  53.2173 321.6601 0001099  82.3091 277.8025 15.08855249106432,6917.834,95.437,540.459,538.939,0.0
53404.0,STARLINK-4509,PAYLOAD,2024-07-10 14:58:33,15.08845942,0.0001557,53.2172,319.2789,96.5057,263.6112,0.00010328,1.356e-05,0.0,0 STARLINK-4509,1 53404U 22097S   24192.62400079  .00001356  00000-0  10328-3 0  9994,2 53404  53.2172 319.2789 0001557  96.5057 263.6112 15.08845942107002,6917.862,95.437,540.804,538.65,0.0
53404.0,STARLINK-4509,PAYLOAD,2024-07-11 13:13:57,15.08847391,0.0001082,53.2158,315.1187,88.3179,271.7938,0.00034829,5.261e-05,0.0,0 STARLINK-4509,1 53404U 22097S   24193.55136220  .00005261  00000-0  34829-3 0  9992,2 53404  53.2158 315.1187 0001082  88.3179 271.7938 15.08847391107141,6917.858,95.437,540.471,538.974,0.0
53404.0,STARLINK-4509,PAYLOAD,2024-07-11 14:49:20,15.08846049,0.0001018,53.2169,314.8207,96.8999,263.2109,0.00048663,7.467e-05,0.0,0 STARLINK-4509,1 53404U 22097S   24193.61760306  .00007467  00000-0  48663-3 0  9998,2 53404  53.2169 314.8207 0001018  96.8999 263.2109 15.08846049106666,6917.862,95.437,540.431,539.023,0.0
53404.0,STARLINK-4509,PAYLOAD,2024-07-12 13:04:44,15.0884292,0.0001266,53.2172,310.6563,99.6097,260.5038,-0.00012575,-2.289e-05,0.0,0 STARLINK-4509,1 53404U 22097S   24194.54496197 -.00002289  00000-0 -12575-3 0  9997,2 53404  53.2172 310.6563 0001266  99.6097 260.5038 15.08842920106805,6917.871,95.437,540.612,538.861,0.0
53404.0,STARLINK-4509,PAYLOAD,2024-07-12 14:40:08,15.08836436,0.0001121,53.2168,310.3599,89.5588,270.5533,0.00014219,1.976e-05,0.0,0 STARLINK-4509,1 53404U 22097S   24194.61120701  .00001976  00000-0  14219-3 0  9997,2 53404  53.2168 310.3599 0001121  89.5588 270.5533 15.08836436107301,6917.891,95.438,540.532,538.981,0.0
53404.0,STARLINK-4509,PAYLOAD,2024-07-13 12:55:32,15.08831759,0.0001431,53.2175,306.196,91.3417,268.7739,-2.3755e-05,-6.66e-06,0.0,0 STARLINK-4509,1 53404U 22097S   24195.53857054 -.00000666  00000-0 -23755-4 0  9990,2 53404  53.2175 306.1960 0001431  91.3417 268.7739 15.08831759106950,6917.906,95.438,540.761,538.781,0.0
53404.0,STARLINK-4509,PAYLOAD,2024-07-13 14:30:55,15.08836076,0.0001447,53.2181,305.9041,111.4462,248.6684,2.3678e-05,8.9e-07,0.0,0 STARLINK-4509,1 53404U 22097S   24195.60480812  .00000089  00000-0  23678-4 0  9993,2 53404  53.2181 305.9041 0001447 111.4462 248.6684 15.08836076107454,6917.892,95.438,540.758,538.756,0.0
53404.0,STARLINK-4509,PAYLOAD,2024-07-14 00:03:13,15.08850228,0.0001243,53.2175,304.1165,101.3125,258.8007,0.00022036,3.222e-05,0.0,0 STARLINK-4509,1 53404U 22097S   24196.00224087  .00003222  00000-0  22036-3 0  9996,2 53404  53.2175 304.1165 0001243 101.3125 258.8007 15.08850228107023,6917.849,95.437,540.574,538.854,0.0
53404.0,STARLINK-4509,PAYLOAD,2024-07-14 12:46:19,15.08835318,0.0001563,53.2193,301.74,107.6165,252.4998,8.9658e-05,1.139e-05,0.0,0 STARLINK-4509,1 53404U 22097S   24196.53216908  .00001139  00000-0  89658-4 0  9996,2 53404  53.2193 301.7400 0001563 107.6165 252.4998 15.08835318107107,6917.895,95.438,540.841,538.678,0.0
53404.0,STARLINK-4509,PAYLOAD,2024-07-14 14:21:42,15.08838503,0.0001328,53.2179,301.443,102.109,258.0051,0.00011866,1.601e-05,0.0,0 STARLINK-4509,1 53404U 22097S   24196.59840742  .00001601  00000-0  11866-3 0  9990,2 53404  53.2179 301.4430 0001328 102.1090 258.0051 15.08838503107603,6917.885,95.438,540.669,538.831,0.0
53404.0,STARLINK-4509,PAYLOAD,2024-07-14 23:53:59,15.08861173,0.0001156,53.2165,299.6511,69.5336,290.578,0.00029833,4.466e-05,0.0,0 STARLINK-4509,1 53404U 22097S   24196.99583332  .00004466  00000-0  29833-3 0  9998,2 53404  53.2165 299.6511 0001156  69.5336 290.5780 15.08861173107175,6917.816,95.436,540.48,538.881,0.0
53404.0,STARLINK-4509,PAYLOAD,2024-07-15 12:37:06,15.08828671,0.0001578,53.218,297.2789,96.6904,263.4267,-5.1113e-05,-1.101e-05,0.0,0 STARLINK-4509,1 53404U 22097S   24197.52577352 -.00001101  00000-0 -51113-4 0  9995,2 53404  53.2180 297.2789 0001578  96.6904 263.4267 15.08828671107257,6917.915,95.438,540.872,538.688,0.0
